      2.10          N: GNSS NAV DATA                        RINEX VERSION / TYPE
fic2rin                                 11/19/2020 00:18:25 PGM / RUN BY / DATE
                                                            END OF HEADER
15 20 11 18  4  0  0.0-1.892619766295e-04 2.614797267597e-12 0.000000000000e+00
    9.300000000000e+01 4.468750000000e+00 5.653092616856e-09 7.497017202459e-01
    3.892928361893e-07 1.304039731622e-02 5.986541509628e-06 5.153765014648e+03
    2.736000000000e+05-1.769512891769e-07 1.919100008253e+00 5.215406417847e-08
    9.281250857352e-01 2.491562500000e+02 9.491760497238e-01-8.623216334430e-09
    1.078616357272e-10 1.000000000000e+00 2.132000000000e+03 0.000000000000e+00
    2.400000000000e+00 0.000000000000e+00-1.071020960808e-08 9.300000000000e+01
    2.664000000000e+05 4.000000000000e+00
22 20 11 18  4  0  0.0-7.283911108971e-04 5.456968210638e-12 0.000000000000e+00
    7.300000000000e+01-4.168750000000e+01 5.015566061316e-09 6.868526193114e-01
   -2.363696694374e-06 6.731071043760e-03 1.049973070621e-05 5.153680908203e+03
    2.736000000000e+05 9.313225746155e-09 8.896583394866e-01-1.471489667892e-07
    9.325213857045e-01 1.656562500000e+02-1.074117933186e+00-8.229628511346e-09
    3.939449808183e-10 1.000000000000e+00 2.132000000000e+03 0.000000000000e+00
    2.400000000000e+00 0.000000000000e+00-1.816079020500e-08 7.300000000000e+01
    2.664000000000e+05 4.000000000000e+00
12 20 11 18  4  0  0.0 3.885990008712e-05-5.115907697473e-12 0.000000000000e+00
    1.000000000000e+02 1.554687500000e+02 4.120885937154e-09-1.835830297175e+00
    8.054077625275e-06 7.993908599019e-03 7.843598723412e-06 5.153606590271e+03
    2.736000000000e+05 1.527369022369e-07-2.088683155820e+00 1.117587089539e-08
    9.760491160663e-01 2.361875000000e+02 1.164954001399e+00-7.773180927044e-09
    1.814361289716e-10 1.000000000000e+00 2.132000000000e+03 0.000000000000e+00
    2.400000000000e+00 0.000000000000e+00-1.257285475731e-08 1.000000000000e+02
    2.664000000000e+05 4.000000000000e+00
26 20 11 18  4  0  0.0 6.901100277901e-07 6.025402399246e-12 0.000000000000e+00
    4.200000000000e+01 1.262812500000e+02 4.752340811213e-09-2.679327981451e+00
    6.522983312607e-06 5.296081071720e-03 8.938834071159e-06 5.153714254379e+03
    2.736000000000e+05-6.891787052155e-08-2.198367034857e+00-5.401670932770e-08
    9.444611496036e-01 2.017812500000e+02 2.060298614221e-01-8.053549748387e-09
    8.964659128322e-11 1.000000000000e+00 2.132000000000e+03 0.000000000000e+00
    2.400000000000e+00 0.000000000000e+00 6.984919309616e-09 4.200000000000e+01
    2.664000000000e+05 4.000000000000e+00
13 20 11 18  4  0  0.0 6.600935012102e-05 3.865352482535e-12 0.000000000000e+00
    7.900000000000e+01-3.062500000000e+00 4.719839457401e-09 1.024896952832e+00
   -2.160668373108e-07 4.814157728106e-03 5.954876542091e-06 5.153676059723e+03
    2.736000000000e+05-4.470348358154e-08 2.158843861335e+00-1.862645149231e-09
    9.676562818997e-01 2.680312500000e+02 1.051299233119e+00-8.036763334880e-09
   -5.071639825584e-11 1.000000000000e+00 2.132000000000e+03 0.000000000000e+00
    2.400000000000e+00 0.000000000000e+00-1.164153218269e-08 7.900000000000e+01
    2.664000000000e+05 4.000000000000e+00
28 20 11 18  4  0  0.0 6.541507318616e-04-4.774847184308e-12 0.000000000000e+00
    3.700000000000e+01 1.512187500000e+02 3.963379376374e-09 2.436394814812e+00
    7.694587111473e-06 1.838695246261e-02 6.772577762604e-06 5.153675046921e+03
    2.736000000000e+05 2.458691596985e-07-2.066226674269e+00-4.656612873077e-08
    9.752486541067e-01 2.517187500000e+02-1.374799178041e+00-7.553886078247e-09
    1.857220217820e-11 1.000000000000e+00 2.132000000000e+03 0.000000000000e+00
    3.400000000000e+00 0.000000000000e+00-1.117587089539e-08 3.700000000000e+01
    2.664000000000e+05 4.000000000000e+00
31 20 11 18  4  0  0.0-8.213566616178e-05-2.387423592154e-12 0.000000000000e+00
    1.260000000000e+02 9.375000000000e+00 4.592334146293e-09-1.539800030235e+00
    1.639127731323e-07 9.889345848933e-03 9.568408131599e-06 5.153692213058e+03
    2.736000000000e+05 0.000000000000e+00 3.102589317767e+00-1.527369022369e-07
    9.571722838733e-01 1.899062500000e+02 1.980763649614e-01-7.868899199808e-09
   -3.678724662220e-10 1.000000000000e+00 2.132000000000e+03 0.000000000000e+00
    2.400000000000e+00 0.000000000000e+00-1.303851604462e-08 1.260000000000e+02
    2.664000000000e+05 4.000000000000e+00
30 20 11 18  4  0  0.0-3.374661318958e-04-6.593836587854e-12 0.000000000000e+00
    1.150000000000e+02 2.665625000000e+01 4.945920303147e-09-1.142541512720e+00
    1.253560185432e-06 4.704777267762e-03 9.704381227493e-06 5.153783342361e+03
    2.736000000000e+05 1.098960638046e-07 3.106353874119e+00-3.539025783539e-08
    9.380530359142e-01 1.776875000000e+02-2.833098593791e+00-8.046406593704e-09
   -4.403754862638e-10 1.000000000000e+00 2.132000000000e+03 0.000000000000e+00
    2.400000000000e+00 0.000000000000e+00 3.725290298462e-09 1.150000000000e+02
    2.664000000000e+05 4.000000000000e+00
32 20 11 18  4  0  0.0 1.380220055580e-06 3.183231456205e-12 0.000000000000e+00
    9.900000000000e+01 3.718750000000e+00 4.874488756308e-09 2.422071737924e+00
    3.036111593246e-07 4.242198658176e-03 5.885958671570e-06 5.153594387054e+03
    2.736000000000e+05-7.636845111847e-08 2.022370660701e+00-1.285225152969e-07
    9.566363891855e-01 2.617812500000e+02-2.466832673117e+00-8.057835641198e-09
    2.192948487964e-10 1.000000000000e+00 2.132000000000e+03 0.000000000000e+00
    2.400000000000e+00 0.000000000000e+00 4.656612873077e-10 9.900000000000e+01
    2.664000000000e+05 4.000000000000e+00
25 20 11 18  4  0  0.0 2.407236024737e-05 6.593836587854e-12 0.000000000000e+00
    1.000000000000e+02 1.421875000000e+02 4.292678807303e-09-2.127278865612e+00
    7.236376404762e-06 9.326257626526e-03 8.588656783104e-06 5.153713901520e+03
    2.736000000000e+05 9.313225746155e-08-2.159811982484e+00-5.774199962616e-08
    9.634301939118e-01 2.148750000000e+02 9.267793547087e-01-7.812825435539e-09
    1.757216052245e-10 1.000000000000e+00 2.132000000000e+03 0.000000000000e+00
    2.400000000000e+00 0.000000000000e+00 5.587935447693e-09 1.000000000000e+02
    2.664000000000e+05 4.000000000000e+00
21 20 11 18  4  0  0.0 6.931927055120e-05 3.751665644813e-12 0.000000000000e+00
    1.160000000000e+02-1.353437500000e+02 4.391254341941e-09 2.012585968238e+00
   -7.130205631256e-06 2.391529409215e-02 4.895031452179e-06 5.154998624802e+03
    2.736000000000e+05 3.576278686523e-07-1.349210430887e-01-7.450580596924e-08
    9.555155042790e-01 2.732187500000e+02-1.263700567984e+00-7.801396388045e-09
   -3.957307694893e-10 1.000000000000e+00 2.132000000000e+03 0.000000000000e+00
    2.400000000000e+00 0.000000000000e+00-1.024454832077e-08 1.160000000000e+02
    2.664000000000e+05 4.000000000000e+00
20 20 11 18  4  0  0.0 5.259755998850e-04-1.136868377216e-13 0.000000000000e+00
    9.400000000000e+01-5.825000000000e+01 4.768770066986e-09-1.027983680721e+00
   -3.026798367500e-06 5.841211881489e-03 1.033768057823e-05 5.153663305283e+03
    2.736000000000e+05-1.005828380585e-07 8.427818492012e-01-1.117587089539e-07
    9.358718118918e-01 1.702812500000e+02 2.764024927110e+00-7.964617472573e-09
    4.843058875699e-10 1.000000000000e+00 2.132000000000e+03 0.000000000000e+00
    2.400000000000e+00 0.000000000000e+00-8.381903171539e-09 9.400000000000e+01
    2.664000000000e+05 4.000000000000e+00
17 20 11 18  4  0  0.0 3.553680144250e-04 5.002220859751e-12 0.000000000000e+00
    6.800000000000e+01-2.625000000000e+00 4.290893018632e-09 1.553791704976e+00
   -4.842877388000e-07 1.358995842747e-02 3.166496753693e-07 5.153499757767e+03
    2.736000000000e+05-2.607703208923e-08-1.053034381234e+00-4.153698682785e-07
    9.831129345084e-01 3.861250000000e+02-1.613816977566e+00-8.283559329210e-09
   -3.071556514086e-11 1.000000000000e+00 2.132000000000e+03 0.000000000000e+00
    2.400000000000e+00 0.000000000000e+00-1.117587089539e-08 6.800000000000e+01
    2.664000000000e+05 4.000000000000e+00
23 20 11 18  4  0  0.0 1.015323214233e-04 4.433786671143e-12 0.000000000000e+00
    1.300000000000e+02-4.659375000000e+01 4.225890311008e-09-5.198637038728e-01
   -2.337619662285e-06 1.095143496059e-03 1.025758683681e-05 5.153628395081e+03
    2.736000000000e+05-7.450580596924e-08 9.569441944639e-01-7.450580596924e-09
    9.620525610308e-01 1.853125000000e+02 2.136974852575e+00-7.667462237722e-09
    4.885917803802e-10 1.000000000000e+00 2.132000000000e+03 0.000000000000e+00
    2.400000000000e+00 0.000000000000e+00-8.381903171539e-09 6.420000000000e+02
    2.664000000000e+05 4.000000000000e+00
18 20 11 18  4  0  0.0 3.226962871850e-04 4.661160346586e-12 0.000000000000e+00
    1.110000000000e+02-1.415312500000e+02 4.189817379854e-09-2.435941247302e-01
   -7.499009370804e-06 1.173859462142e-03 6.463378667831e-06 5.153710252762e+03
    2.736000000000e+05 9.499490261078e-08-4.179074482084e-02-1.862645149231e-08
    9.662555934296e-01 2.595937500000e+02 2.923835341569e+00-7.983189674751e-09
   -2.714398779890e-10 1.000000000000e+00 2.132000000000e+03 0.000000000000e+00
    2.400000000000e+00 0.000000000000e+00-8.381903171539e-09 3.670000000000e+02
    2.664000000000e+05 4.000000000000e+00
14 20 11 18  4  0  0.0-3.734603524208e-07 0.000000000000e+00 0.000000000000e+00
    1.000000000000e+01 1.374687500000e+02 4.432684639108e-09-2.527070086384e-01
    7.105991244316e-06 1.307452330366e-04 7.249414920807e-06 5.153747556686e+03
    2.736000000000e+05 3.725290298462e-09-2.112845930891e+00-1.862645149231e-09
    9.595982438500e-01 2.412500000000e+02 1.503555127392e+00-8.008190716145e-09
    1.010756387775e-10 1.000000000000e+00 2.132000000000e+03 0.000000000000e+00
    2.400000000000e+00 6.300000000000e+01-2.328306436539e-09 1.000000000000e+01
    2.664000000000e+05 4.000000000000e+00
